start=new Date('2023-03-28T00:00:00.000Z').valueOf();
sats=[{"TLE_LINE1":"1 54848U 22177AE  23086.76704925  .00002816  00000-0  22358-3 0  9997","REF_FRAME":"TEME","OBJECT_ID":"2022-177AE","OBJECT_TYPE":"PAYLOAD","BSTAR":"0.00022358000000","APOAPSIS":"559.905","PERIOD":"95.839","GP_ID":"228996036","OBJECT_NAME":"STARLINK-5432","EPHEMERIS_TYPE":"0","MEAN_ELEMENT_THEORY":"SGP4","DECAY_DATE":null,"TLE_LINE2":"2 54848  43.0016 217.8008 0001110 274.4185  85.6530 15.02518501 14959","EPOCH":"2023-03-27T18:24:33.055200","PERIAPSIS":"558.365","REV_AT_EPOCH":"1495","MEAN_MOTION_DDOT":"0.0000000000000","CLASSIFICATION_TYPE":"U","MEAN_MOTION":"15.02518501","LAUNCH_DATE":"2022-12-28","TIME_SYSTEM":"UTC","NORAD_CAT_ID":"54848","FILE":"3872915","COUNTRY_CODE":"US","MEAN_ANOMALY":"85.6530","ECCENTRICITY":"0.00011100","ELEMENT_SET_NO":"999","MEAN_MOTION_DOT":"0.00002816","ARG_OF_PERICENTER":"274.4185","SEMIMAJOR_AXIS":"6937.270","SITE":"AFETR","RA_OF_ASC_NODE":"217.8008","CENTER_NAME":"EARTH","RCS_SIZE":"LARGE","INCLINATION":"43.0016"},{"DECAY_DATE":null,"TLE_LINE2":"2 54849  43.0015 229.9168 0001346 272.6754  87.3934 15.02473287 14816","EPHEMERIS_TYPE":"0","GP_ID":"228995284","OBJECT_NAME":"STARLINK-5434","MEAN_ELEMENT_THEORY":"SGP4","PERIOD":"95.842","APOAPSIS":"560.208","TLE_LINE1":"1 54849U 22177AF  23086.76217744  .00005905  00000-0  45254-3 0  9998","OBJECT_TYPE":"PAYLOAD","OBJECT_ID":"2022-177AF","BSTAR":"0.00045254000000","REF_FRAME":"TEME","SEMIMAJOR_AXIS":"6937.410","RA_OF_ASC_NODE":"229.9168","SITE":"AFETR","INCLINATION":"43.0015","RCS_SIZE":"LARGE","CENTER_NAME":"EARTH","MEAN_ANOMALY":"87.3934","COUNTRY_CODE":"US","ELEMENT_SET_NO":"999","ECCENTRICITY":"0.00013460","MEAN_MOTION_DOT":"0.00005905","ARG_OF_PERICENTER":"272.6754","LAUNCH_DATE":"2022-12-28","MEAN_MOTION":"15.02473287","TIME_SYSTEM":"UTC","NORAD_CAT_ID":"54849","FILE":"3872915","EPOCH":"2023-03-27T18:17:32.130816","PERIAPSIS":"558.341","REV_AT_EPOCH":"1481","MEAN_MOTION_DDOT":"0.0000000000000","CLASSIFICATION_TYPE":"U"},{"CLASSIFICATION_TYPE":"U","MEAN_MOTION_DDOT":"0.0000000000000","REV_AT_EPOCH":"1495","PERIAPSIS":"558.679","EPOCH":"2023-03-27T18:16:31.967904","FILE":"3872915","TIME_SYSTEM":"UTC","NORAD_CAT_ID":"54850","LAUNCH_DATE":"2022-12-28","MEAN_MOTION":"15.02531930","ARG_OF_PERICENTER":"198.1684","MEAN_MOTION_DOT":"0.00004627","ELEMENT_SET_NO":"999","ECCENTRICITY":"0.00005990","MEAN_ANOMALY":"161.9137","COUNTRY_CODE":"US","INCLINATION":"43.0012","RCS_SIZE":"LARGE","CENTER_NAME":"EARTH","RA_OF_ASC_NODE":"217.7621","SITE":"AFETR","SEMIMAJOR_AXIS":"6937.229","OBJECT_ID":"2022-177AG","OBJECT_TYPE":"PAYLOAD","BSTAR":"0.00035740000000","REF_FRAME":"TEME","TLE_LINE1":"1 54850U 22177AG  23086.76148111  .00004627  00000-0  35740-3 0  9990","PERIOD":"95.838","APOAPSIS":"559.510","MEAN_ELEMENT_THEORY":"SGP4","EPHEMERIS_TYPE":"0","OBJECT_NAME":"STARLINK-5087","GP_ID":"228995534","TLE_LINE2":"2 54850  43.0012 217.7621 0000599 198.1684 161.9137 15.02531930 14956","DECAY_DATE":null},{"OBJECT_NAME":"STARLINK-5084","GP_ID":"228995786","EPHEMERIS_TYPE":"0","MEAN_ELEMENT_THEORY":"SGP4","DECAY_DATE":null,"TLE_LINE2":"2 54851  43.0015 217.7760 0001474 271.7368  88.3306 15.02532927 14951","TLE_LINE1":"1 54851U 22177AH  23086.76370316  .00005075  00000-0  39048-3 0  9998","REF_FRAME":"TEME","OBJECT_TYPE":"PAYLOAD","OBJECT_ID":"2022-177AH","BSTAR":"0.00039048000000","PERIOD":"95.838","APOAPSIS":"560.114","COUNTRY_CODE":"US","MEAN_ANOMALY":"88.3306","ECCENTRICITY":"0.00014740","ELEMENT_SET_NO":"999","MEAN_MOTION_DOT":"0.00005075","ARG_OF_PERICENTER":"271.7368","SEMIMAJOR_AXIS":"6937.226","SITE":"AFETR","RA_OF_ASC_NODE":"217.7760","CENTER_NAME":"EARTH","RCS_SIZE":"LARGE","INCLINATION":"43.0015","EPOCH":"2023-03-27T18:19:43.953024","PERIAPSIS":"558.068","REV_AT_EPOCH":"1495","MEAN_MOTION_DDOT":"0.0000000000000","CLASSIFICATION_TYPE":"U","MEAN_MOTION":"15.02532927","LAUNCH_DATE":"2022-12-28","TIME_SYSTEM":"UTC","NORAD_CAT_ID":"54851","FILE":"3872915"},{"PERIOD":"95.837","APOAPSIS":"560.222","OBJECT_TYPE":"PAYLOAD","OBJECT_ID":"2022-177AJ","BSTAR":"0.00049905000000","REF_FRAME":"TEME","TLE_LINE1":"1 54852U 22177AJ  23086.75370938  .00006548  00000-0  49905-3 0  9997","TLE_LINE2":"2 54852  43.0008 217.7010 0001744 280.8833  79.1813 15.02558598 14953","DECAY_DATE":null,"MEAN_ELEMENT_THEORY":"SGP4","EPHEMERIS_TYPE":"0","OBJECT_NAME":"STARLINK-5418","GP_ID":"228996536","FILE":"3872915","TIME_SYSTEM":"UTC","NORAD_CAT_ID":"54852","LAUNCH_DATE":"2022-12-28","MEAN_MOTION":"15.02558598","CLASSIFICATION_TYPE":"U","MEAN_MOTION_DDOT":"0.0000000000000","REV_AT_EPOCH":"1495","PERIAPSIS":"557.802","EPOCH":"2023-03-27T18:05:20.490432","INCLINATION":"43.0008","RCS_SIZE":"LARGE","CENTER_NAME":"EARTH","RA_OF_ASC_NODE":"217.7010","SITE":"AFETR","SEMIMAJOR_AXIS":"6937.147","ARG_OF_PERICENTER":"280.8833","MEAN_MOTION_DOT":"0.00006548","ELEMENT_SET_NO":"999","ECCENTRICITY":"0.00017440","MEAN_ANOMALY":"79.1813","COUNTRY_CODE":"US"},{"CLASSIFICATION_TYPE":"U","MEAN_MOTION_DDOT":"0.0000000000000","REV_AT_EPOCH":"1495","PERIAPSIS":"558.458","EPOCH":"2023-03-27T18:11:44.064096","FILE":"3872915","NORAD_CAT_ID":"54853","TIME_SYSTEM":"UTC","MEAN_MOTION":"15.02533416","LAUNCH_DATE":"2022-12-28","ARG_OF_PERICENTER":"234.1351","MEAN_MOTION_DOT":"0.00004358","ECCENTRICITY":"0.00009100","ELEMENT_SET_NO":"999","COUNTRY_CODE":"US","MEAN_ANOMALY":"125.9406","CENTER_NAME":"EARTH","RCS_SIZE":"LARGE","INCLINATION":"43.0014","SITE":"AFETR","RA_OF_ASC_NODE":"217.7355","SEMIMAJOR_AXIS":"6937.224","REF_FRAME":"TEME","OBJECT_ID":"2022-177AK","OBJECT_TYPE":"PAYLOAD","BSTAR":"0.00033752000000","TLE_LINE1":"1 54853U 22177AK  23086.75814889  .00004358  00000-0  33752-3 0  9996","APOAPSIS":"559.721","PERIOD":"95.838","MEAN_ELEMENT_THEORY":"SGP4","GP_ID":"228994785","OBJECT_NAME":"STARLINK-5427","EPHEMERIS_TYPE":"0","TLE_LINE2":"2 54853  43.0014 217.7355 0000910 234.1351 125.9406 15.02533416 14954","DECAY_DATE":null},{"MEAN_MOTION_DOT":"0.00005413","ARG_OF_PERICENTER":"263.1229","COUNTRY_CODE":"US","MEAN_ANOMALY":"96.9466","ECCENTRICITY":"0.00012900","ELEMENT_SET_NO":"999","CENTER_NAME":"EARTH","INCLINATION":"43.0020","RCS_SIZE":"LARGE","SEMIMAJOR_AXIS":"6937.220","SITE":"AFETR","RA_OF_ASC_NODE":"217.6592","MEAN_MOTION_DDOT":"0.0000000000000","CLASSIFICATION_TYPE":"U","PERIAPSIS":"558.190","EPOCH":"2023-03-27T17:57:20.754432","REV_AT_EPOCH":"1495","NORAD_CAT_ID":"54854","TIME_SYSTEM":"UTC","FILE":"3872915","MEAN_MOTION":"15.02535011","LAUNCH_DATE":"2022-12-28","MEAN_ELEMENT_THEORY":"SGP4","GP_ID":"228995035","OBJECT_NAME":"STARLINK-5419","EPHEMERIS_TYPE":"0","DECAY_DATE":null,"TLE_LINE2":"2 54854  43.0020 217.6592 0001290 263.1229  96.9466 15.02535011 14958","REF_FRAME":"TEME","OBJECT_TYPE":"PAYLOAD","OBJECT_ID":"2022-177AL","BSTAR":"0.00041546000000","TLE_LINE1":"1 54854U 22177AL  23086.74815688  .00005413  00000-0  41546-3 0  9997","PERIOD":"95.838","APOAPSIS":"559.979"},{"MEAN_ELEMENT_THEORY":"SGP4","GP_ID":"228996286","OBJECT_NAME":"STARLINK-5416","EPHEMERIS_TYPE":"0","DECAY_DATE":null,"TLE_LINE2":"2 54855  43.0019 217.6756 0001732 268.2604  91.8039 15.02540141 14953","REF_FRAME":"TEME","OBJECT_TYPE":"PAYLOAD","OBJECT_ID":"2022-177AM","BSTAR":"0.00044299000000","TLE_LINE1":"1 54855U 22177AM  23086.75037352  .00005786  00000-0  44299-3 0  9994","PERIOD":"95.838","APOAPSIS":"560.270","MEAN_MOTION_DOT":"0.00005786","ARG_OF_PERICENTER":"268.2604","COUNTRY_CODE":"US","MEAN_ANOMALY":"91.8039","ECCENTRICITY":"0.00017320","ELEMENT_SET_NO":"999","CENTER_NAME":"EARTH","RCS_SIZE":"LARGE","INCLINATION":"43.0019","SEMIMAJOR_AXIS":"6937.204","SITE":"AFETR","RA_OF_ASC_NODE":"217.6756","MEAN_MOTION_DDOT":"0.0000000000000","CLASSIFICATION_TYPE":"U","EPOCH":"2023-03-27T18:00:32.272128","PERIAPSIS":"557.867","REV_AT_EPOCH":"1495","TIME_SYSTEM":"UTC","NORAD_CAT_ID":"54855","FILE":"3872915","MEAN_MOTION":"15.02540141","LAUNCH_DATE":"2022-12-28"},{"MEAN_ANOMALY":"75.5019","COUNTRY_CODE":"US","ELEMENT_SET_NO":"999","ECCENTRICITY":"0.00009430","MEAN_MOTION_DOT":"0.00005554","ARG_OF_PERICENTER":"284.5719","SEMIMAJOR_AXIS":"6937.219","RA_OF_ASC_NODE":"216.8090","SITE":"AFETR","INCLINATION":"43.0023","RCS_SIZE":"LARGE","CENTER_NAME":"EARTH","EPOCH":"2023-03-27T20:44:49.440768","PERIAPSIS":"558.430","REV_AT_EPOCH":"1497","MEAN_MOTION_DDOT":"0.0000000000000","CLASSIFICATION_TYPE":"U","LAUNCH_DATE":"2022-12-28","MEAN_MOTION":"15.02535044","NORAD_CAT_ID":"54856","TIME_SYSTEM":"UTC","FILE":"3872915","EPHEMERIS_TYPE":"0","OBJECT_NAME":"STARLINK-5086","GP_ID":"228996037","MEAN_ELEMENT_THEORY":"SGP4","DECAY_DATE":null,"TLE_LINE2":"2 54856  43.0023 216.8090 0000943 284.5719  75.5019 15.02535044 14977","TLE_LINE1":"1 54856U 22177AN  23086.86446112  .00005554  00000-0  42588-3 0  9997","OBJECT_TYPE":"PAYLOAD","OBJECT_ID":"2022-177AN","BSTAR":"0.00042588000000","REF_FRAME":"TEME","PERIOD":"95.838","APOAPSIS":"559.739"},{"RCS_SIZE":"LARGE","INCLINATION":"43.0006","CENTER_NAME":"EARTH","SEMIMAJOR_AXIS":"6937.193","RA_OF_ASC_NODE":"217.7191","SITE":"AFETR","MEAN_MOTION_DOT":"0.00006407","ARG_OF_PERICENTER":"258.8928","MEAN_ANOMALY":"101.1737","COUNTRY_CODE":"US","ELEMENT_SET_NO":"999","ECCENTRICITY":"0.00015790","NORAD_CAT_ID":"54857","TIME_SYSTEM":"UTC","FILE":"3872915","LAUNCH_DATE":"2022-12-28","MEAN_MOTION":"15.02543611","MEAN_MOTION_DDOT":"0.0000000000000","CLASSIFICATION_TYPE":"U","EPOCH":"2023-03-27T18:08:31.697088","PERIAPSIS":"557.963","REV_AT_EPOCH":"1495","DECAY_DATE":null,"TLE_LINE2":"2 54857  43.0006 217.7191 0001579 258.8928 101.1737 15.02543611 14953","MEAN_ELEMENT_THEORY":"SGP4","EPHEMERIS_TYPE":"0","GP_ID":"228995285","OBJECT_NAME":"STARLINK-5078","PERIOD":"95.837","APOAPSIS":"560.153","BSTAR":"0.00048883000000","OBJECT_TYPE":"PAYLOAD","OBJECT_ID":"2022-177AP","REF_FRAME":"TEME","TLE_LINE1":"1 54857U 22177AP  23086.75592242  .00006407  00000-0  48883-3 0  9994"}];
